NORAD_CAT_ID,OBJECT_NAME,OBJECT_TYPE,EPOCH,MEAN_MOTION,ECCENTRICITY,INCLINATION,RA_OF_ASC_NODE,ARG_OF_PERICENTER,MEAN_ANOMALY,BSTAR,MEAN_MOTION_DOT,MEAN_MOTION_DDOT,TLE_LINE0,TLE_LINE1,TLE_LINE2,SEMIMAJOR_AXIS,PERIOD,APOGEE,PERIGEE,DECAYED
50189.0,STARLINK-3276,PAYLOAD,2022-10-30 10:02:52,15.08836849,0.0002589,53.2189,354.0731,34.2747,325.8412,-0.00013757,-2.477e-05,0.0,0 STARLINK-3276,1 50189U 21125AK  22303.41866601 -.00002477  00000-0 -13757-3 0  9994,2 50189  53.2189 354.0731 0002589  34.2747 325.8412 15.08836849 51516,6917.89,95.438,541.5459999999998,537.964,0.0
50189.0,STARLINK-3276,PAYLOAD,2022-10-30 13:13:38,15.08837125,0.0002583,53.2192,353.4786,36.7836,323.3333,-0.00011456,-2.111e-05,0.0,0 STARLINK-3276,1 50189U 21125AK  22303.55114555 -.00002111  00000-0 -11456-3 0  9992,2 50189  53.2192 353.4786 0002583  36.7836 323.3333 15.08837125 51538,6917.889,95.438,541.5409999999998,537.967,0.0
50189.0,STARLINK-3276,PAYLOAD,2022-10-31 09:53:39,15.08836505,0.0002526999999999,53.2188,349.61300000000006,35.5286,324.5874,3.2086e-06,-2.37e-06,0.0,0 STARLINK-3276,1 50189U 21125AK  22304.41226357 -.00000237  00000-0  32086-5 0  9992,2 50189  53.2188 349.6130 0002527  35.5286 324.5874 15.08836505 51665,6917.891,95.438,541.504,538.008,0.0
50189.0,STARLINK-3276,PAYLOAD,2022-10-31 13:04:26,15.08825791,0.0002722,53.2192,349.0173,32.6904,327.4257,-2.0106e-05,-6.08e-06,0.0,0 STARLINK-3276,1 50189U 21125AK  22304.54475203 -.00000608  00000-0 -20106-4 0  9994,2 50189  53.2192 349.0173 0002722  32.6904 327.4257 15.08825791 51160,6917.924,95.438,541.672,537.906,0.0
50189.0,STARLINK-3276,PAYLOAD,2022-11-01 03:22:54,15.08829542,0.0002555,53.2189,346.3432,28.8431,331.2702,4.1553e-05,3.73e-06,0.0,0 STARLINK-3276,1 50189U 21125AK  22305.14090964  .00000373  00000-0  41553-4 0  9994,2 50189  53.2189 346.3432 0002555  28.8431 331.2702 15.08829542 51256,6917.9119999999975,95.438,541.545,538.01,0.0
50189.0,STARLINK-3276,PAYLOAD,2022-11-01 09:44:27,15.0882865,0.0002493,53.2189,345.1518,29.49,330.6232,1.6915e-05,-1.9e-07,0.0,0 STARLINK-3276,1 50189U 21125AK  22305.40587303 -.00000019  00000-0  16915-4 0  9993,2 50189  53.2189 345.1518 0002493  29.4900 330.6232 15.08828650 51819,6917.915,95.438,541.505,538.055,0.0
50189.0,STARLINK-3276,PAYLOAD,2022-11-01 14:30:36,15.08829826,0.0002544,53.2187,344.2605,30.9896,329.1246,9.3607e-05,1.201e-05,0.0,0 STARLINK-3276,1 50189U 21125AK  22305.60459169  .00001201  00000-0  93607-4 0  9999,2 50189  53.2187 344.2605 0002544  30.9896 329.1246 15.08829826 51849,6917.911,95.438,541.536,538.0169999999998,0.0
50189.0,STARLINK-3276,PAYLOAD,2022-11-02 03:13:41,15.08839635,0.0002435,53.219,341.8814,36.3273,323.7884,9.035e-05,1.15e-05,0.0,0 STARLINK-3276,1 50189U 21125AK  22306.13450697  .00001150  00000-0  90350-4 0  9990,2 50189  53.2190 341.8814 0002435  36.3273 323.7884 15.08839635 51405,6917.882,95.438,541.431,538.062,0.0
50189.0,STARLINK-3276,PAYLOAD,2022-11-02 11:10:37,15.08831297,0.000246,53.2187,340.395,37.9002,322.2163,8.8492e-06,-1.48e-06,0.0,0 STARLINK-3276,1 50189U 21125AK  22306.46571605 -.00000148  00000-0  88492-5 0  9991,2 50189  53.2187 340.3950 0002460  37.9002 322.2163 15.08831297 51973,6917.906999999997,95.438,541.474,538.07,0.0
50189.0,STARLINK-3276,PAYLOAD,2022-11-02 19:07:33,15.08837033,0.0002133,53.2192,338.9094,43.7853,316.3308,-5.5428e-05,-1.17e-05,0.0,0 STARLINK-3276,1 50189U 21125AK  22306.79691634 -.00001170  00000-0 -55428-4 0  9991,2 50189  53.2192 338.9094 0002133  43.7853 316.3308 15.08837033 52023,6917.889,95.438,541.23,538.279,0.0
50189.0,STARLINK-3276,PAYLOAD,2022-11-03 12:36:47,15.08838132,0.0002562,53.2179,335.6357,27.1933,332.9193,0.00011539,1.548e-05,0.0,0 STARLINK-3276,1 50189U 21125AK  22307.52555236  .00001548  00000-0  11539-3 0  9991,2 50189  53.2179 335.6357 0002562  27.1933 332.9193 15.08838132 51616,6917.886,95.438,541.523,537.979,0.0
50189.0,STARLINK-3276,PAYLOAD,2022-11-04 10:52:10,15.08853641,0.0002397,53.2189,331.4736,34.0018,326.1127,0.00015683,2.209e-05,0.0,0 STARLINK-3276,1 50189U 21125AK  22308.45289787  .00002209  00000-0  15683-3 0  9998,2 50189  53.2189 331.4736 0002397  34.0018 326.1127 15.08853641 51758,6917.839,95.437,541.362,538.045,0.0
50189.0,STARLINK-3276,PAYLOAD,2022-11-04 18:49:06,15.0883943,0.0002579,53.2179,329.986,31.9735,328.1413,8.2132e-05,1.019e-05,0.0,0 STARLINK-3276,1 50189U 21125AK  22308.78410834  .00001019  00000-0  82132-4 0  9995,2 50189  53.2179 329.9860 0002579  31.9735 328.1413 15.08839430 51807,6917.882,95.438,541.531,537.9630000000002,0.0
50189.0,STARLINK-3276,PAYLOAD,2022-11-05 09:07:35,15.08837142,0.0002324,53.2193,327.3104,31.5351,328.5780000000001,4.427e-07,-2.81e-06,0.0,0 STARLINK-3276,1 50189U 21125AK  22309.38027096 -.00000281  00000-0  44270-6 0  9990,2 50189  53.2193 327.3104 0002324  31.5351 328.5780 15.08837142 52411,6917.889,95.438,541.362,538.146,0.0
50189.0,STARLINK-3276,PAYLOAD,2022-11-05 18:39:56,15.08817714,0.0002582,53.2189,325.5267,31.3912,328.7234,-0.00017975,-3.146e-05,0.0,0 STARLINK-3276,1 50189U 21125AK  22309.77773184 -.00003146  00000-0 -17975-3 0  9992,2 50189  53.2189 325.5267 0002582  31.3912 328.7234 15.08817714 51950,6917.949000000001,95.439,541.6,538.0269999999998,0.0
50189.0,STARLINK-3276,PAYLOAD,2022-11-06 01:01:28,15.08824645,0.0002726,53.2202,324.3371,30.9297,329.1856,-0.00018572,-3.242e-05,0.0,0 STARLINK-3276,1 50189U 21125AK  22310.04268995 -.00003242  00000-0 -18572-3 0  9994,2 50189  53.2202 324.3371 0002726  30.9297 329.1856 15.08824645 51990,6917.927,95.439,541.678,537.906,0.0
50189.0,STARLINK-3276,PAYLOAD,2022-11-06 07:23:00,15.08832,0.0002549,53.2191,323.1478,30.7299,329.3842,-0.00011635,-2.139e-05,0.0,0 STARLINK-3276,1 50189U 21125AK  22310.30764455 -.00002139  00000-0 -11635-3 0  9992,2 50189  53.2191 323.1478 0002549  30.7299 329.3842 15.08832000 52032,6917.905,95.438,541.533,538.006,0.0
50189.0,STARLINK-3276,PAYLOAD,2022-11-07 05:38:23,15.08838911,0.0002658,53.2188,318.9863,29.2345,330.8795,6.2683e-05,7.09e-06,0.0,0 STARLINK-3276,1 50189U 21125AK  22311.23499998  .00000709  00000-0  62683-4 0  9991,2 50189  53.2188 318.9863 0002658  29.2345 330.8795 15.08838911 52170,6917.884,95.438,541.587,537.91,0.0
50189.0,STARLINK-3276,PAYLOAD,2022-11-07 11:59:57,15.08830796,0.0002826,53.2186,317.7972,26.6978,333.4159,0.00013287,1.826e-05,0.0,0 STARLINK-3276,1 50189U 21125AK  22311.49996579  .00001826  00000-0  13287-3 0  9992,2 50189  53.2186 317.7972 0002826  26.6978 333.4159 15.08830796 52217,6917.909000000002,95.438,541.729,537.819,0.0
50189.0,STARLINK-3276,PAYLOAD,2022-11-08 07:04:33,15.08846899,0.0002536,53.2176,314.2275,30.2956,329.8183,0.00030265,4.533e-05,0.0,0 STARLINK-3276,1 50189U 21125AK  22312.29483338  .00004533  00000-0  30265-3 0  9998,2 50189  53.2176 314.2275 0002536  30.2956 329.8183 15.08846899 52339,6917.859,95.437,541.479,537.97,0.0
50189.0,STARLINK-3276,PAYLOAD,2022-11-09 03:44:34,15.08839235,0.0002696,53.2186,310.3626,23.257,336.8543,1.0906e-05,-1.15e-06,0.0,0 STARLINK-3276,1 50189U 21125AK  22313.15596034 -.00000115  00000-0  10906-4 0  9996,2 50189  53.2186 310.3626 0002696  23.2570 336.8543 15.08839235 52466,6917.8830000000025,95.438,541.613,537.883,0.0
50189.0,STARLINK-3276,PAYLOAD,2022-11-09 11:41:31,15.08828623,0.0002511,53.218,308.8753,30.2643,329.8494,-3.0271e-05,-7.699999999999999e-06,0.0,0 STARLINK-3276,1 50189U 21125AK  22313.48717029 -.00000770  00000-0 -30271-4 0  9996,2 50189  53.2180 308.8753 0002511  30.2643 329.8494 15.08828623 53038,6917.915,95.438,541.5169999999998,538.043,0.0
50189.0,STARLINK-3276,PAYLOAD,2022-11-09 16:27:39,15.08835134,0.0002703,53.2179,307.9827,31.5084,328.607,-0.00015087,-2.689e-05,0.0,0 STARLINK-3276,1 50189U 21125AK  22313.68587700 -.00002689  00000-0 -15087-3 0  9997,2 50189  53.2179 307.9827 0002703  31.5084 328.6070 15.08835134 53069,6917.895,95.438,541.63,537.89,0.0
50189.0,STARLINK-3276,PAYLOAD,2022-11-10 08:21:31,15.08831089,0.000256,53.2178,305.0089,30.1482,329.9657,-0.00029347,-4.955e-05,0.0,0 STARLINK-3276,1 50189U 21125AK  22314.34828274 -.00004955  00000-0 -29347-3 0  9997,2 50189  53.2178 305.0089 0002560  30.1482 329.9657 15.08831089 53166,6917.908,95.438,541.544,538.002,0.0
50189.0,STARLINK-3276,PAYLOAD,2022-11-10 16:18:27,15.08826986,0.0002594,53.2179,303.5222,31.8706,328.2442,-0.00021417,-3.694e-05,0.0,0 STARLINK-3276,1 50189U 21125AK  22314.67948751 -.00003694  00000-0 -21417-3 0  9995,2 50189  53.2179 303.5222 0002594  31.8706 328.2442 15.08826986 52694,6917.92,95.438,541.58,537.991,0.0
50189.0,STARLINK-3276,PAYLOAD,2022-11-11 05:01:34,15.08806591,0.0002712,53.2179,301.1435,33.9831,326.1334,0.00023725,3.486e-05,0.0,0 STARLINK-3276,1 50189U 21125AK  22315.20942503  .00003486  00000-0  23725-3 0  9995,2 50189  53.2179 301.1435 0002712  33.9831 326.1334 15.08806591 52774,6917.983,95.44,541.724,537.971,0.0
50189.0,STARLINK-3276,PAYLOAD,2022-11-11 08:12:20,15.08821888,0.000278,53.2186,300.5491,26.5821,333.5314,5.9036e-05,6.51e-06,0.0,0 STARLINK-3276,1 50189U 21125AK  22315.34190151  .00000651  00000-0  59036-4 0  9990,2 50189  53.2186 300.5491 0002780  26.5821 333.5314 15.08821888 52797,6917.936,95.439,541.724,537.878,0.0
50189.0,STARLINK-3276,PAYLOAD,2022-11-11 16:09:16,15.08821346,0.0002583,53.2187,299.0623,31.0516,329.0628,0.00024851,3.667e-05,0.0,0 STARLINK-3276,1 50189U 21125AK  22315.67310285  .00003667  00000-0  24851-3 0  9994,2 50189  53.2187 299.0623 0002583  31.0516 329.0628 15.08821346 53361,6917.937,95.439,541.589,538.016,0.0
50189.0,STARLINK-3276,PAYLOAD,2022-11-12 04:52:20,15.08841635,0.0002569,53.218,296.6832,33.4379,326.6775,0.00040383,6.145e-05,0.0,0 STARLINK-3276,1 50189U 21125AK  22316.20301756  .00006145  00000-0  40383-3 0  9999,2 50189  53.2180 296.6832 0002569  33.4379 326.6775 15.08841635 52926,6917.875,95.437,541.518,537.9630000000002,0.0
